[{"OBJECT_NAME":"YAOGAN-19","OBJECT_ID":"2013-065A","EPOCH":"2026-03-09T22:04:30.738144","MEAN_MOTION":13.15578826,"ECCENTRICITY":0.00090241,"INCLINATION":100.1035,"RA_OF_ASC_NODE":49.7884,"ARG_OF_PERICENTER":320.185,"MEAN_ANOMALY":39.8601,"EPHEMERIS_TYPE":0,"CLASSIFICATION_TYPE":"U","NORAD_CAT_ID":39410,"ELEMENT_SET_NO":999,"REV_AT_EPOCH":59059,"BSTAR":0.00094809629,"MEAN_MOTION_DOT":3.15e-6,"MEAN_MOTION_DDOT":0},{"OBJECT_NAME":"ONEWEB-0203","OBJECT_ID":"2021-031AB","EPOCH":"2026-03-09T16:33:24.437088","MEAN_MOTION":13.14501616,"ECCENTRICITY":0.00016369,"INCLINATION":87.8996,"RA_OF_ASC_NODE":309.5447,"ARG_OF_PERICENTER":86.9091,"MEAN_ANOMALY":273.2226,"EPHEMERIS_TYPE":0,"CLASSIFICATION_TYPE":"U","NORAD_CAT_ID":48235,"ELEMENT_SET_NO":999,"REV_AT_EPOCH":23520,"BSTAR":0.00019517003,"MEAN_MOTION_DOT":8.5e-7,"MEAN_MOTION_DDOT":0}]
